BEESAT-4                
1 41619U 16040W   21291.42063042  .00005341  00000-0  20848-3 0  9996
2 41619  97.2560 344.0243 0008786 253.0333 106.9943 15.26287938283769
CAS-2T & KS-1Q          
1 41847U 16066G   21291.40574260  .00000348  00000-0  62938-4 0  9993
2 41847  98.5876 350.9641 0364501 213.1622 144.6237 14.38255245259555
NAYIF-1 (EO-88)         
1 42017U 17008BX  21291.43587463  .00005984  00000-0  21466-3 0  9993
2 42017  97.3042 356.8110 0006738  45.1252 315.0535 15.29050662260048
ZHUHAI-1 02 (CAS-4B)    
1 42759U 17034B   21291.82342363  .00001310  00000-0  91430-4 0  9994
2 42759  43.0169 222.7336 0008671 224.0925 165.7003 15.10455886239800
ZHUHAI-1 01 (CAS-4A)    
1 42761U 17034D   21291.81014444  .00001370  00000-0  94810-4 0  9993
2 42761  43.0174 221.7703 0008835 226.3588 179.2689 15.10543088239800
MAX VALIER SAT          
1 42778U 17036P   21291.55957031  .00003051  00000-0  12812-3 0  9991
2 42778  97.2421 336.0775 0013490 101.3006 258.9749 15.24107322240034
RADFXSAT (FOX-1B)       
1 43017U 17073E   21291.47634476  .00001492  00000-0  12034-3 0  9998
2 43017  97.6933 190.5176 0252401 258.8573  98.4169 14.79859234211312
FOX-1D (AO-92)          
1 43137U 18004AC  21291.45305234  .00003903  00000-0  15523-3 0  9996
2 43137  97.3972   4.1978 0009886 131.2202 228.9890 15.25833176209413
DIWATA-2B               
1 43678U 18084H   21291.67094914  .00000560  00000-0  61282-4 0  9998
2 43678  97.9395  57.7008 0010165  13.0831 347.0636 14.91813269161807
ES'HAIL 2               
1 43700U 18090A   21291.51631251  .00000133  00000-0  00000-0 0  9998
2 43700   0.0174 259.4296 0002419 325.8554  13.6253  1.00270951 10605
FOX-1CLIFF (AO-95)      
1 43770U 18099N   21291.43703975  .00000442  00000-0  45043-4 0  9991
2 43770  97.6535 358.8413 0014657  12.2432 347.9142 14.95481514156832
ITASAT 1                
1 43786U 18099AE  21291.46666314  .00001064  00000-0  10045-3 0  9990
2 43786  97.6556 359.6337 0014983   5.1894 354.9480 14.95753720156879
JY1SAT (JO-97)          
1 43803U 18099AX  21291.47598288  .00001407  00000-0  13021-3 0  9993
2 43803  97.6520 359.3827 0014923   5.4051 354.7328 14.96035025156885
UWE-4                   
1 43880U 18111E   21291.24320377  .00000767  00000-0  71478-4 0  9999
2 43880  97.6771 196.8221 0013738  56.1027 304.1499 14.97048940153458
NEXUS (FO-99)           
1 43937U 19003F   21291.66114360  .00004378  00000-0  16971-3 0  9990
2 43937  97.1644 329.8693 0021006 297.3384  62.5717 15.26439845153053
PSAT2 (NO-104)          
1 44354U 19036R   21291.57541892  .00039505  00000-0  49848-3 0  9993
2 44354  28.5284  23.6570 0308456 174.9051 185.4788 15.18003821127670
BRICSAT2 (NO-103)       
1 44355U 19036S   21291.40061903  .00097276 -44397-5  89598-3 0  9994
2 44355  28.5269 316.4970 0223983 284.1292  73.4516 15.40412363128332
JAISAT-1                
1 44419U 19038F   21291.43982445  .00003266  00000-0  18163-3 0  9996
2 44419  97.6035 255.8148 0019123 246.5212 113.4010 15.14253570126401
DUCHIFAT-3              
1 44854U 19089C   21291.77584985  .00001239  00000-0  10480-3 0  9991
2 44854  36.9645  91.2322 0007493  45.3291 314.8042 14.99703494101628
CAS-6 (TO-108)          
1 44881U 19093C   21291.79816968  .00000199  00000-0  32160-4 0  9991
2 44881  97.9157   9.2343 0013692 250.7921 109.1810 14.81494197 98996
RS-44 & BREEZE-KM R/B   
1 44909U 19096E   21291.52992734  .00000002  00000-0 -38306-4 0  9994
2 44909  82.5263  31.0231 0217851 165.1198 195.6453 12.79711262 84563
ORBITAL FACTORY 2 (OF-2)
1 45113U 19071C   21291.67444976  .00007034  00000-0  20133-3 0  9990
2 45113  51.6405 159.5964 0011318  23.3993 336.7503 15.37026036 96116
HUSKYSAT-1 (HO-107)     
1 45119U 19071J   21291.23175151  .00007263  00000-0  20806-3 0  9995
2 45119  51.6408 161.1312 0010732  18.2070 341.9295 15.36949177 96046
BY70-2                  
1 45857U 20042B   21291.79007918  .00002428  00000-0  34796-3 0  9991
2 45857  97.9764   6.2403 0011691 169.7928 190.3506 14.77415634 69751
SALSAT                  
1 46495U 20068K   21291.58254496  .00001198  00000-0  91912-4 0  9997
2 46495  97.6985 228.3983 0017732  19.0582 341.1303 15.03595397 57839
BY70-3                  
1 46839U 20079N   21291.85691928  .00006176  00000-0  18522-3 0  9992
2 46839  97.2293   3.2704 0008656 118.6776 352.9524 15.34791237 53124
RADFXSAT-2 (AO-109)     
1 47311U 21002C   21291.14997511  .00003142  00000-0  14491-3 0  9995
2 47311  60.6853 191.7296 0040108 110.0934 250.4476 15.22176987 41542
UVSQ-SAT                
1 47438U 21006AB  21291.43660078  .00002481  00000-0  14198-3 0  9995
2 47438  97.4744 350.3922 0013506  39.7226 320.4992 15.13492799 40655
DIY-1 (ARDUIQUBE)       
1 47963U 21022AH  21291.28582580  .00005801  00000-0  37955-3 0  9995
2 47963  97.5457 191.4155 0017622 244.2058 115.7352 15.08025303 30405
